Account no,Title,Contact,Address 1,Address 2,Address 3,Town,County,Post Code,Region,Telephone,Email,Website
1115744,A D TYRES,Andy Doriano,Unit 2 Millie Street,,,Kirkcaldy,Fife,KY1 2NL,Scotland,01592 641725,chris@apdtyres.plus.com,
1115989,A D Tyres (Wholesale) Ltd,David and Angela Foster,52 Carrwood Road,Sheepbridge,,Chesterfield,Derbyshire,S41 9QB,Yorks & Humber,01226 260899,darren@adtyres.co.uk,adtyres.co.uk
1115992,A&A TYRE SERVICE,Gareth Cook,The Garage,Maes-Y-Ffynnon Lane,,Aberdare,Mid Glamorgan,CF44 6EJ,South Wales,01685 876 017,aa.aberdare@btconnect.com,www.aberdaretyres.com
1102751,A1 TYRE SERVICES,Leon Winterbottom,1a Great Union Street,,,Hull,East Riding of Yorkshire,HU9 1AL,Yorks & Humber,01482 707384,info@a1tyreservices.co.uk,https://www.a1tyreservices.co.uk/
1115883,A1 TYRES,Robbie Smith,St Bryde Street,,,Glasgow,Lanarkshire,G74 4HQ,Scotland,01355 228008,tyres@a1tyres.biz,www.eastkilbridetyrescentre.com
1116022,A14 TYRES,Alan McKenzie,1 Fornham Road,,,Bury St Edmunds,Suffolk,IP32 6AH,East,01284 765000,tyres@a14tyres.biz,www.a14tyres.moonfruit.com
1083871,A2 TYRE SERVICE CENTRE,Kevin Lorton,Unit 3,2 Trinity Trading Estate,,Sittingbourne,Kent,ME10 2PG,South East,01795 475200,a2tyres@yahoo.co.uk,www.a2tyres.co.uk
1115993,A590 TYRES,Mike Heaton,4 Biggar Village,Walney Island,,Barrow In Furness,Cumbria,LA14 3YG,North West,0784 2088180,a590tyres@gmail.com,
1115828,ABBOTSINCH TYRES & EXHAUSTS,Andrew Findlay,17 James Little Street Ind Est,,,Kilmarnock,Ayrshire,KA1 4AT,Scotland,01563 531 967,sales@abbotsinch.com,abbotsinch.com
1098825,ADDISON TYRES,Jason Addison,52A High Street,Princes End,,Tipton,West Midlands,DY4 9HP,West Midlands,0121 557 4019,sales@addisontyrecentre.co.uk,www.discounttyresuk.co.uk
1083234,AKW TYRE SERVICES,Andrew White,Bancombe Court ,Somerton Business Park,,Somerton,Somerset,TA11 6SB,South West,01458 274800,aktyres@btconnect.com,
1085564,ALLTYRES TRADING LTD,Ronan O'Connell,Units 7/8/9 Woodford Trading Estate,Southend Road,,Woodford Green,Essex,IG8 8HF,South East,020 8551 0033,ronan@alltyres.co.uk,www.alltyres.co.uk
1087436,ALNWICK TYRES,George & David Meakin,South Road,,,Alnwick,Northumberland,NE66 2PD,North East,01655 510143,alnwicktyres@hotmail.co.uk,
1083797,AMS TYRES & AUTOCENTRE,Steve Phillips,3 Trusham Road,Marsh Barton Ind Est,,Exeter,Devon,EX2 8NW,South West,01392 424666,Steve@amstyres.co.uk,www.amstyres.co.uk
1083236,ANDY'S TYRES,Andrew Johnson,Steeple Road,,,Prestatyn,Denbighshire,LL19 7HA,North Wales,01745 854732,prestatyn@andystyres.co.uk,www.tyresnorthwales.co.uk
1086974,ANGUS TYRES,Graham Annandale,15 Queen Street,,,Forfar,Angus,DD8 3AJ,Scotland,01307 467089,angustyres@uk2.net,www.angustyres.com
1118718,APEX TYRES,Mark Skipworth,1152 Lincoln Road,,,Peterborough,Cambridgeshire,PE4 6LQ,East,01733 575921,mark.skipworth@ntlworld.com,www.apextyres.org.uk
1115704,ASHTON TYRE SPECIALISTS,Jon-Dave,Adlington Industrial Estate,,,Macclesfield,Cheshire,SK10 4NL,North West,01625 859123,ashtontyres@btconnect.com,www.ashtontyres.co.uk
1115827,AUCHINLEA TYRES,Donna Shelley,Unit 140-142  Newhouse Industrial Estate,Block 15,,Motherwell,Lanarkshire,ML1 5RX,Scotland,01698 733 006,auchinleatyres@hotmail.com,
1117815,AUTO EXHAUSTS & TYRES,Peter Zaplatyuskij,47/53 Chieftain Way,Tritton Road,,Lincoln,Lincolnshire,LN6 7RY,East Midlands,01522 530414,autoexhausts@btconnect.com,www.autoexhaustandtyres.co.uk
1084007,AUTOCARE,Paul Hoy,Unit 13-14 Fairways,Brookfield Centre,,Cheshunt,Hertfordshire,EN8 0NJ,London,01992 638811,paul.hoy@hotmail.co.uk,http://autocaregroup.co.uk
1084004,AUTOCARE,Paul Hoy,Watton Rd,,,Ware,Hertfordshire,SG12 0AD,South East,01920 465951,autocare.ware@hotmail.co.uk,http://autocaregroup.co.uk
1115997,AUTOPOINT MOT CENTRE,Chris Turbitt,8 Carlyon Road,,,Atherstone,Warwickshire,CV9 1LQ,West Midlands,01827 718554,chris@autopointmotcentre.co.uk,
1115880,B S TYRE & AUTO,Blair Sinclair,12 Chanonry Road North,,,Elgin,Morayshire,IV30 6NB,Scotland,01343 569325,blair@blairsinclair.orangehome.co.uk,
1090519,BASSETT & SLUGGETT,Richard,Unit 6,Tamar Technology Park,River Tamar Way,Holsworthy,Devon,EX22 6EW,South West,01409 253301,richard@bassettandsluggett.co.uk,www.bassettandsluggett.co.uk
1083255,BMTR,Mike Jones,103-115 Walsall Road,Perry Barr,,Birmingham,West Midlands,B42 1TU,West Midlands,0845 6801549,retail@bmtr.co.uk,www.birminghammotortyre.co.uk
1083255,BMTR,Mike Jones,Station Road,,,Coleshill,West Midlands,B46 1HT,West Midlands,01675 463256,retail@bmtr.co.uk,www.birminghammotortyre.co.uk
1115830,Bob's Tyres,Jim Howard,Blacknell Lane Trading Estate,,,Crewkerne,Somerset,TA18 7HE,South West,01460 72037,bobstyres@bobstyresltd.com,www.bobstyresltd.com
1087436,BORDER TYRES,George & David Meakin,Unit 8,North Road Ind Estate,,Berwick Upon Tweed,Northumberland,TD15 1UN,Scotland,01289 302691,bordertyres@yahoo.co.uk,
1117690,BORO TYRES,Adam Beston,Seamer Road,,,Scarborough,North Yorkshire,YO12 4BT,Yorks & Humber,01723 376153,sales@borotyres.co.uk,www.borotyres.co.uk
1115792,BOWER LANE TYRES,Craig Tutt,Bower Lane Garages,Bower Lane,,Maidstone,Kent,ME16 8EJ,South East,01622 687466,craigtutt@live.co.uk,https://www.bowerlane-tyres.co.uk/
1116451,BRECKLAND TYRE SERVICES,Karl Coan,8 Industrial Estate,Station Road,,Attleborough,Norfolk,NR17 2NP,East,01953 457168,sales@brecklandtyreservices.co.uk,
1115743,BRIDGE TYREHOUSE,Geoff Brown,Eddystone Road,,,Wadebridge,Cornwall,PL27 7AL,South West,01208 813080,,
1084855,BRIGHTON TYRES & EXHAUSTS,David Diamond,14 Richmond Parade,,,Brighton,East Sussex,BN2 9QD,South East,01273 697678,enquiries@brighton-tyres.co.uk,www.brighton-tyres.co.uk
1117861,BROOKOS OF BOTLEY LTD,Paul Brooks,Unit 14 Curtis Yard,Botley Works,,Oxford,Oxfordshire,OX2 0LX,South East,01865 248882,belles1995@gmail.com,brookostyres.co.uk
1116206,BRUNEL TYRES & AUTOCARE,Stephen Benton,Unit 8-8b,Ashley Hill Trading Estate,,Bristol,Avon,BS2 9XS,South West,01179 555510,sales@bruneltyres.com,www.bruneltyres.com
1116246,BUDGET TYRES,Steve Perie,Station Yard,,,Kendal,Cumbria,LA9 6BT,North West,01539 722244,sperie@hotmail.co.uk,
1100771,BUILTH WELLS TYRES,Rod Morgan,Lion Garage,,,Builth Wells,Powys,LD2 3BN,South Wales,01982 551689,rodmorganltd@yahoo.com,
1083246,CARNABY TYRES,Gordon Ridley,Unit 6f Carnaby Industrial Estate,Lancaster Road,,Bridlington,North Humberside,YO15 3QY,Yorks & Humber,01262 604506,carnabytyres@aol.co.uk,www.carnabytyres.co.uk
1083868,CASTLE TYRES,Alan,Unit 21,Castlefields Trading Estate,,Bingley,West Yorkshire,BD16 2AF,Yorks & Humber,01274 561332,service@castletyresbingley.co.uk,www.castletyresbingley.co.uk
1121730,Chalky Whites Repairs and Service Ltd,Craig White,16A Watling Street,Fenny Stratford,,Milton Keynes,Buckinghamshire,MK2 2BL,South East,01908 448170,craig@chalkywhites.com,
1115699,CHALLENGE TYRE & EXHAUST CENTRE,Ivan Wolsey,42/44 Union Street,,,Trowbridge,Wiltshire,BA14 8RY,South West,01225 777725,iolsel@mail.com,
1126405,CHECKPOINT TYRE & AUTO (DEVIZES)   ,,42 New Park Street,,,Devizes,Wiltshire,SN10 1DT,South West,01985 215148,sales@checkpointtyres.co.uk,www.checkpointwarminster.co.uk
1115700,CHECKPOINT WARMINSTER,,Woodcock Industrial Estate,Woodcock Road,,Warminster,Wiltshire,BA12 9DX,South West,01380 724455,sales@checkpointtyres.co.uk,www.checkpointwarminster.co.uk
1084422,CHEDDAR TYRE SUPPLIES,Gary Mayo,1a Valley Line Industrial Park,Wedmore Road,,Cheddar,Somerset,BS27 3EE,South West,01934 742390,craigw@hotmail.com,
1115989,CHESTERFIELD TYRES & EXHAUST,David Foster,Unit 30-31,Station Lane Industrial Estate,,Chesterfield,Derbyshire,S41 9QX,Yorks & Humber,01246 454095,ctyres@adtyres.co.uk,www.chesterfieldtyreandexhaustservices.co.uk
1126489,Chris Mullins Tyres,John Price,325 Bristol Road,,,Gloucester,Gloucestershire,GL2 5DN,South West,01452 529537,john.price@chrismullins.co.uk,https://www.chrismullins.co.uk/
1115995,CLINTON GARAGE,Laky Saikhon,Clinton Lane,,,Kenilworth,Warwickshire,CV8 1AS,West Midlands,01926 853167,spa.motors@btconnect.com,www.clintongarage.co.uk
1116104,COLE AND DAY,William Day,7 High Street,,,Somersham,Cambridgeshire,PE28 3JA,East,01487 840278,coleandday@aol.com,
1115789,COLWALL MOT AND TYRE CENTRE,Daryl South,7 Station Yard Industrial Estate,Colwall,,Malvern,Worcestershire,WR13 6RN,West Midlands,01684 540066,colwallmot@hotmail.com,
1108796,COMBINED TYRES,Mike Kingston,Road 4 Winsford Industrial Estate,,,Winsford,Cheshire,CW7 3QN,North West,01606 550573,combinedtyres@btconnect.com,www.combinedtyres.co.uk
1115916,CONTINENTAL SERVICE STATION,Rob,Caerbont,,,Swansea,West Glamorgan,SA9 1SW,South Wales,01639 731000,oakley6691@aol.com,
1115786,COTTAGE STREET GARAGE,James Pettener,Cottage Street,,,Macclesfield,Cheshire,SK11 8DZ,North West,01625 426507,emma.morris55@btinternet.com,www.cottagestreetgarage.co.uk
1116485,CRACKLEY GARAGE,James Poulter,Unit F,Princes Drive Industrial Estate,Coventry Road,Kenilworth,Warwickshire,CV8 2FD,West Midlands,01926 852729,crackley_garage@btconnect.com,www.crackleygarage.com
1115751,CREWE TYRES & EXHAUST,Eric Harrison,Derby Street,,,Crewe,Cheshire,CW1 3ER,North West,01270 255966,crewetyres@btinternet.com,www.crewetyres.co.uk
1083845,CRIBB TYRES & BATTERY,Paul Cribb,Wareham Road,,,Poole,Dorset,BH16 6JW,South West,01202 631122,cribbtyres@hotmail.co.uk,
1090589,Cumbria Tyre Specialist Ltd ,David Hayton,Unit 4 Durranhill Industrial Estate,,,Carlisle,Cumbria,CA1 3UD,North West,01228 514940,cumbriatyrespecialist@hotmail.com,
1083231,CUTS TYRES & EXHAUSTS,Graham,Brotton Road,Carlin-How,,Saltburn,County Durham,TS13 4DY,North East,01287 644441,cutstyres4u@gmail.com,www.cutstyresandexhausts.co.uk
1086836,DARWEN TYRES & EXHAUST SERVICES,Shaban Ali,Birchall Avenue,,,Darwen,Lancashire,BB3 0JB,North West,01254 776672,shabby96@live.co.uk,www.darwentyres.co.uk
1115696,DAVE PRANCE TYRES,Dave Prance,St. Fagans Garage,Michaelston Road,,Cardiff,South Glamorgan,CF5 4SY,South Wales,029 20599000,dave@philipjenkins.co.uk,www.stfagansgarage.co.uk
1115726,DAVID CRAIG PERFORMANCE TYRES,David Craig,Mansfield Park,,,Hawick,Roxburghshire,TD9 8AL,Scotland,01450 376169,info@craigmotors.co.uk,
1115825,DD TYRES,Darrell Hicken,66 Askern Road,,,Doncaster,South Yorkshire,DN5 0EW,Yorks & Humber,01302 874707,diamond20764@aol.co.uk,
1097731,DEREK ADAMS GARAGE,Derek Adams,Salterton Road,,,Exmouth,Devon,EX8 2NS,South West,01395 270133,info@derekadamsgarage.co.uk,www.derekadamsgarage.co.uk
1118807,DIRECT TYRES (KENT AUTO PANELS),Graham Bingham,Ross Way,,,Folkestone,Kent,CT20 3UJ,South East,01303 249656,graham.bingham@kentautopanels.co.uk,
1115918,DRIVE-IN AUTO CARE,Mike Knight,Unit 5,Falcon Units ,Bradley Lane,Newton Abbot,Devon,TQ12 1NB,South West,01626 36663,mike@driveinautocare.co.uk,www.drivein-autocare.co.uk
1116403,DROITWICH TYRES & EXHAUSTS,Paul Fry,12 Sherwood Road,Aston Fields Industrial Estate,,Bromsgrove,Worcestershire,B60 3DR,West Midlands,01527 836303,droitwichtyres@gmail.com,www.droitwichtyresandexhaust.co.uk
1085138,DSW MOTOR FACTORS,David Smith,Willow Farm,Mansfield Road,,Creswell,Nottinghamshire,S80 4HT,East Midlands,01909 722311,davidsmith@dswmotorfactors.com,
1115829,EAMES MOTOR REPAIRS,Scott Eames,Unit 18,St. James Industrial Estate,Weshampnett Road,Chichester,West Sussex,PO19 7JU,South East,01243 775968,eamesmotorrepairs@btconnect.com,
1108792,Eden Tyres & Servicing,Jim Eden,27 Nottingham Road,,,Ripley,Derbyshire,DE5 3AS,East Midlands,01773 744646,customerservices@edentyres.co.uk,www.edentyres.com
1116047,EDGWICK TYRES,Mick Thompson,Unit K Templar Industrial Estate,Torrington Avenue,,Coventry,West Midlands,CV4 9AP,West Midlands,01295 271362,timedgwick@hotmail.co.uk,edgwicktyres.co.uk
1116018,EDM GARAGE SERVICES,Dave Hickling,Burton Road,,,Findern,Derbyshire,DE65 6BE,East Midlands,01332 521751,dave@edmgarageservices.co.uk,www.edmgarageservices.co.uk
1084920,EDMUNDS EXHAUST & AUTOCARE,David Edmunds,370 Reading Road,,,Wokingham,Berkshire,RG41 5EJ,South East,0118 989 1123,edmundstyres@googlemail.com,www.edmundstyres.com
1122406,Elite Garage Services,Andy Bales,"Unit 8, Folgate Road",,,North Walsham,Norfolk,NR28 0AJ,East,01692 409999,elitegarageservices@googlemail.com,
1115884,EMPRESSTYRES.COM,Deborah Reynolds,"Unit 6, Accrington Trade Park",Electricity Street,,Accrington,Lancashire,BB5 1DD,North West,01254 236609,sales@empresstyres.com,www.empresstyres.com
1115785,ENTERPRISE TYRES & EXHAUST,Lee Evans,Unit 36,37 Neath Abbey Business Park,,Neath,West Glamorgan,SA10 7DR,South Wales,01792 816731,enterprisetyres@live.co.uk,www.enterprisetyresandexhausts.co.uk
1127171,Europit Tyres Ltd,Gerry Duffy,88 Oxford Road,,,Clacton on Sea,Essex,CO15 3TQ,South East,01255 473 536,annemarie.duffy@europittyres.co.uk,
1083227,EVESHAM TYRE CENTRE,Adrian Preston,Enterprise Way,Vale Business Park,,Evesham,Worcestershire,WR11 1GS,West Midlands,01386 420904,eveshamtyres@spencercomm.com,www.eveshamtyrecentre.com
1109011,EXPRESS TYRE SERVICE,Ian Hamilton,Unit 1 61-63 Bridge Street,,,Lockerbie,Dumfriesshire,DG11 2HS,Scotland,01576 203042,info@expresstyrelockerbie.co.uk,
1085237,FAIRWAY TYRES & AUTO SERVICES,Andrew Dickman,90 Uxbridge Road,Mill End,,Rickmansworth,Hertfordshire,WD3 8BW,South East,01923 721 008,fts10@live.co.uk,www.fairwaytyres.co.uk
1098942,FAST FIT PLUS LTD,Jason Thom,Units 2 and 3,Bromsgrove Road,,Halesowen,West Midlands,B63 3HJ,West Midlands,0121 503 0700,fast.fitplus@btconnect.com,www.fastfitplus.co.uk
1115907,FLEET FIT,John Sykes,Cumberland Trading Estate,Cumberland Road,,Loughborough,Leicestershire,LE11 5DF,East Midlands,01509 266160,fleetfit@btconnect.com,www.fleetfitloughborough.com
1115832,FOR TYRES,Anthony Rogers/Kevin Ecclestone,420 Werrington Road,,,Stoke On Trent,Staffordshire,ST2 9AB,West Midlands,01782 215562,fortyres@gmx.co.uk,
1115748,FOREST OF DEAN TYRES,Wayne Davies,Nash-Morgan Building,New Road,,Lydney,Gloucestershire,GL15 4QF,South West,01594 564211,fod1@btconnect.com,www.forestofdeantyres.com
1117960,FOX TYRES,Mark McIntyre,Foxborough Hill,,,Sandwich,Kent,CT13 0NY,South East,01304 621172,foxboroughtyres@hotmail.co.uk,
1083208,FRODSHAM TYRE CO,Phil Knowles,The Frodsham Business Centre,Bridge Lane,,Warrington,Cheshire,WA6 7FZ,North West,01928 733831,sales@biginrubber.co.uk,www.biginrubber.co.uk
1115912,GDS TYRES,John De Sandolo,29 Pembroke Road,,,Haverfordwest,Dyfed,SA61 1JW,South Wales,01437 760800,gdstyresltd@hotmail.co.uk,https://www.gdstyres.co.uk/
1083251,GEMINI CARS,Andy,68 High Street,,,Rotherham,South Yorkshire,S66 8LA,Yorks & Humber,01709 814598,robeys@btinternet.com,
1115917,GOODFELLOWS TYRES,Darrie Goodfellow,Fairfield Buildings,South Street,,Cockermouth,Cumbria,CA13 9RU,North West,01900 823600,darriegoodfellow@googlemail.com,www.goodfellowtyres.co.uk
1084006,GOODRIMS,Chris Knight,Unit 30,Bourne Industrial Park,Bourne Road,Dartford,Kent,DA1 4BZ,South East,01322 523003,info@goodrims.co.uk,www.goodrims.co.uk
1084594,GOODTREAD TYRE CO,Sandy Mackenzie,40 High Street,,,Alness,Rossshire,IV17 0PS,Scotland,01349 882206,enquiries@goodtread.com,
1116671,GOSPORT TYRE & EXHAUST CENTRE,Dave Webb and Steve Cawte,Unit 8 Clarence Wharf Industrial Estate,Mumby Road,,Gosport,Hampshire,PO12 1AJ,South East,02392 504555,gosporttyre@hotmail.co.uk,
1116164,GRAHAMS TYRES,John Andrews,154 Leppings Lane,,,Sheffield,South Yorkshire,S6 1SX,Yorks & Humber,01142 332845,johnandrews15@hotmail.co.uk,grahamstyres.co.uk
1083887,GRANDE TYRES FASTFIX,Greg Harm,Whickham Industrial Estate,Swalwell, Gateshead,Newcastle Upon Tyne,Northumberland,NE16 3DA,North East,0191 488 7288,info@grandetyres.co.uk,grandetyres.co.uk
1115808,GROVE HILL GARAGE,Phil Wright,Station Road,Bentham,,Lancaster,Lancashire,LA2 7LH,North West,0152 4261782,grovehillgarage@googlemail.com,
1115783,GT Tyres (Ceredigion) Ltd,Carwyn Evans,Brooklyn Garage,Castle Street,,Cardigan,Dyfed,SA43 3AE,South Wales,01239 612814,info@gttyresceredigion.co.uk,www.gttyresceredigion.co.uk
1106703,GW Autoserve Ltd,Dale Guiler,2 Holywells Close,,,Ipswich,Suffolk,IP3 0AW,East,01473 218 364,rupert@gw-autoserve.co.uk,www.gwautoserve.co.uk
1115831,H & B TYRES,Mike Hobbs,33 Christchurch Street East,,,Frome,Somerset,BA11 1QH,South West,01373 46066,handbtyres@gmail.com,
1115988,HAMMOND TYRES,Keith Manders,Norwich Road,,,Halesworth,Suffolk,IP19 8HX,East,01986 834734,tyres@hammondgroup.co.uk,www.hammondgroup.co.uk
1090869,Havers Tyres,Richard Ellis,Havers Road,,,Norwich,Norfolk,NR3 2DU,East,01603 409119,sales@haverstyres.co.uk,www.haverstyres.co.uk
1115697,HEATH TYRE SERVICES,Andrew Evans,Maes-Y-Coed Road,,,Cardiff,South Glamorgan,CF14 4HH,South Wales,02920 611688,heathtyres@hotmail.com,
1083245,HENRYS TYRE & AUTO SERVICE,David,2 North Street,,,Castleford,West Yorkshire,WF10 1LG,Yorks & Humber,01977 553806,henrystyres@live.co.uk,
1115788,HEREFORD TYRES,James Lauchlan,22 Vaughan Street,,,Hereford,Herefordshire,HR1 2HD,West Midlands,01432 353 205,james@herefordtyres.co.uk,www.herefordtyres.co.uk
1085200,HQ AUTO & LEISURE CENTRE,Matthew,Grove House, Foster Street,,Penrith,Cumbria,CA11 7NZ,North West,01768 862376,info@hqautoandleisure.co.uk,www.hqmotcentre.co.uk
1084860,HUW LEWIS TYRES,Huw Lewis,Glan Yr Afon Industrial Estate,,,Aberystwyth,Dyfed,SY23 3LQ,North Wales,01970 611166,admin@huwlewistyres.com,www.huwlewistyres.com
1116141,IAN BROWN TYRES,Ian Brown,Derwent Road,York Road Industrial Estate,,Malton,North Yorkshire,YO17 6YB,Yorks & Humber,01653 6903000,enquiries@ianbrowntyres.co.uk,ianbrowntyres.co.uk
1116021,IMPERIAL TYRES,Chris-Allen Welch,Dunbeath Road,Elgin Ind Est,,Swindon,Wiltshire,SN2 8EA,South West,01793 531990,imperialtyres@btconnect.com,www.imperialtyres.co.uk
1116017,INVICTA TYRES,Martin Bowles,Jackson Road,Wincheap Industrial Estate,,Canterbury,Kent,CT1 3RF,South East,01227 761213,invictatyres@aol.com,www.invictatyrescanterbury.co.uk
1086706,J A PRICE MOTOR ENGINEERS LTD,Russell Price,The Forge,Lydham,,Ludlow,Shropshire,SY9 5HB,North West,01588 638585,russ@lydhamforge.co.uk,www.lydhamforge.co.uk
1115725,JAMES MITCHELL CARS,Richard Mitchell,Tantallon Road,,,North Berwick,East Lothian,EH39 5NF,Scotland,01620 892232,mail@mitchells-nb.co.uk,www.jamesmitchellcars.co.uk
1116552,JIM DICKSON TYRE & ACCESSORY SERVICES,Jim Dickson,24-26 Baronhill,,,Glasgow,Lanarkshire,G67 2SB,Scotland,01236 720205,Garage@dicksontyres.co.uk,
1116673,JK TYRES & AUTOCENTRE,Jim Kennedy,87 Newhouse Road,,,Grangemouth,Stirlingshire,FK3 8NJ,Scotland,01324 469999,accounts@jktyres.co.uk,www.jktyres.co.uk
1116801,K & P TYRES EWELL,Steve Gardiner,169 Chessington Road,,,Epsom,Surrey,KT19 9XE,London,0208 3932338,enquiries@k-p-tyres.co.uk,www.k-p-tyres.co.uk
1116136,K TEE Motorcentre Ltd,Pete Black,124a Countesthorpe Road,,,Wigston,Leicestershire,LE18 4PR,East Midlands,0116 2775452,kteetyres.ltd@hotmail.com,kteemotorcentre.co.uk
1117860,KIDLINGTON TYRE & EXHAUST CENTRE,Lianne Hay Day,Langford Lane,,,Kidlington,Oxfordshire,OX5 1HT,South East,01865 374151,sales@ktecgarage.co.uk,www.kidlingtontyres.co.uk
1084436,KIRKLEY RUN DISCOUNT TYRES & WHEELS,Ashley Steward,126 Southtown Road,,,Great Yarmouth,Norfolk,NR31 0JZ,East,01493 857099,info@kirkleytyresandwheels.co.uk,www.kirkleytyresandwheels.co.uk
1116304,KMC TYRES,Mark Peacher,13 Page Road,Sweet Briar Road Industrial Es,,Norwich,Norfolk,NR3 2BX,East,01603 789090,kmctyres@hotmail.com,www.kmctyres.net
1090027,LAINDON TYRE CENTRE,Rob Stelmach,13 Durham Road,,,Basildon,Essex,SS15 6PH,South East,01268 540333,rob.stelmach80@gmail.com,http://laindontyres.co.uk/
1126648,Lincoln's Tyre Service,Andrew Stevenson,15A Julians Road,,,Stevenage,Hertfordshire,SG1 3ES,South East,01438 354473,lincolnstyres@outlook.com,
1108782,Linslade Tyres,Andrew Joyce,18a Leighton Road,Linslade,,Leighton Buzzard,Bedfordshire,LU7 1LF,South East,01525 374113,sales@linsladetyres.com,www.linsladetyres.com
1116370,LITTLEHAMPTON TYRE & EXHAUST CENTRES,Frank Corbett,St Martins Barn,St Martins Lane,,Littlehampton,West Sussex,BN17 6BS,South East,01903 717080,sales@littlehamptontyres.co.uk,www.littlehamptontyres.co.uk
1087501,LOU'S TYRES,Lou and Simon Shorthose,Brigg Road,,,Scunthorpe,South Humberside,DN16 1AR,Yorks & Humber,01724 281981,simon@loustyresltd.com,
1083864,LTC Tyres & Exhausts,Darren Macdonald,159 Stourbridge Road,,,Stourbridge,West Midlands,DY9 7BU,West Midlands,01384 898014,sales@tyres4sale.com,tyres4sale.com
1117082,M P FOULKES,Terry Foulkes,The Garage,,,Adfa,Powys,SY16 3DB,North Wales,01938 810255,terryfoulkes@btinternet.com,www.mpfoulkes-tyres.co.uk
1108174,MAC Tyres Ltd ,Louise Wilkie,40 Windmill Street,,,Peterhead,Aberdeenshire,AB42 1UL,Scotland,01779 487097,info@mactyres.co.uk,www.tyresinpeterhead.co.uk
1116139,MALCOLM'S TYRES & EXHAUSTS,Malcolm Hargate,Cemetery Road,,,Barnsley,South Yorkshire,S70 1XR,Yorks & Humber,01226 295171,sales@malcolmstyres.com,
1115724,MANN AUTOMOTIVE,Barry Cruickshank,Unit 1-3 Old Mart,Market Road,,Laurencekirk,Aberdeenshire,AB30 1DG,Scotland,01561 378500,mannautomotive@btopenworld.com,
1115725,MCNEILS GARAGE,Jim McNeill,The Wynd,Ormiston,,Tranent,East Lothian,EH35 5HN,Scotland,01875 610289,mcneils-garage@vodabb.com,
1115966,MERROW TYRE & ALIGNMENT CENTRE,Martin Heffer,1-2 Farnham Business Centre,Dogflud Way,,Farnham,Surrey,GU9 7UP,South East,01252 724 209,martinheffer@btinternet.com,www.merrow-tyres.co.uk
1126588,Mike Knight Tyres,Philip Marshall,"Unit 2B, Severnside Trading Estate",St Andrews Road,,Bristol,Avon,BS11 9YQ,South West,01179 828460,mktyres-accounts@btconnect.com,http://mikeknighttyres.co.uk/
1115838,MICK'S TYRES,Chris Street,Elm Tree Street,,,Mansfield,Nottinghamshire,NG18 2HD,East Midlands,01623 650237,christopherstreet@hotmail.co.uk,www.tyres-mansfield.co.uk
1115991,MILES TYRES & EXHAUST SERVICES,Andrew Miles,Unit 1 The Rearing Unit,Oldbury Lane,,Bristol,Avon,BS35 1RF,South West,01454 321160,andy@milestyres.com,www.milestyres.com
1115742,MILL AUTOS,Wendy Bagnell,Unit A,Creech Paper Mill,,Taunton,Somerset,TA3 5PX,South West,01823 444117,millautoservices@gmail.com,
1086333,MILL TYRES,Edward Sands,87 Field Street,,,Boston,Lincolnshire,PE21 6TR,East,01205 368365,milltyres.ed@hotmail.co.uk,www.milltyres.com
1115725,MILLBURN GARAGE,John Gorman,165 Galashiels Road,,,Galashiels,Selkirkshire,TD1 2RE,Scotland,01578 730333,millburngarage@hotmail.com,
1116385,MITCHELL NORTH WEST,Steve Price,Stanley Mill Lane,,,Cheshire Oaks,Cheshire,CH2 4RG,North West,0151 3475690,s.price@mitchellgroup.co.uk,https://www.mitchellgroup.co.uk
1090026,Monkleigh Garage,Geoff & Debs Williams,Monkleigh,,,Bideford,Devon,EX39 5JS,South West,01805 623157,,
1119532,Moss Tyres,Richard Stow,"Unit 7, Kettlestring Lane",,,York,North Yorkshire,YO30 4WF,Yorks & Humber,01904 690344,info@mosstyres.co.uk,www.mosstyres.co.uk
1097310,MOTORCARE (POWYS) LIMITED,Adrian Roberts,Tanat Industrial Estate,Llanrhaeadr ym Mochnant,,Oswestry,Shropshire ,SY10 0AA,North Wales,01691 780500,motorcarepowysltd@hotmail.co.uk,www.motorcarepowys.co.uk
1115698,NEIL ARNOLD TYRES,Neil Arnold,Bampton Street,,,Minehead,Somerset,TA24 5TR,South West,01643 707788,neilarnoldtyres@hotmail.co.uk,
1102734,NORTH DEVON TYRES,Trevor Veysey,4 Ormidale Square ,Tiverton Business Park ,,Tiverton,Devon,EX16 6TW,South West,01884 243430 ,sales@northdevontyres.co.uk,northdevontyresltd.co.uk
1107838,OATLANDS TYRE & MOTOR CO,Richard Matthews-Graham Chapman,Mount Street,,,Harrogate,North Yorkshire,HG2 8DQ,Yorks & Humber,01423 879700,sales@oatlandstyres.co.uk,
1119282,Orbit Tyres ,Ben Joyce,Skinners Hill ,,,Rushden,Northamptonshire,NN10 9YE,East Midlands,01933 312511,rushden@orbittyres.com,www.orbittyres.com
1119283,Orbit Tyres ,Ben Joyce,Stanton close,Finedon Road ind est,,Wellingborough,Northamptonshire,NN8 4HN,East Midlands,01933 271550,wellingborough@orbittyres.com,www.orbittyres.com
1115725,OSTLES TYRES,Stuart Ostle,Currie Road Industrial Estate,,,Galashiels,Selkirkshire,TD1 2BP,Scotland,01896 756421,ostles@tyres.gbtbroadband.co.uk,
1116019,OXFORD TYRE & BATTERY,Derek Littler,Oakworth Road,,,Keighley,West Yorkshire,BD21 1QT,Yorks & Humber,01535 605044,oxfordtyres@yahoo.co.uk,
1115787,P&B TYRES,Brian Evans,Unit 4A,Maesbury Road Ind Estate,,Oswestry,Shropshire,SY10 8GA,West Midlands,01691 655859,sales@pbtyres.net,www.pandbtyres.co.uk
1117661,PENISTONE TYRES,Mark-Rachel Pearson,Bridge End Garage,Bridge End,,Sheffield,South Yorkshire,S36 7AH,Yorks & Humber,01226 767160,info@penistonetyres.com,
1115882,PENNINE SERVICE STATION,Graham How,Longsight Road,,,Osbaldeston,Lancashire,BB2 7HZ,North West,01254 812715,pennineservicestation@yahoo.com,
1115791,PERSHORE TYRE SERVICES,Shawn Parsons,1 Lyttleton Road,,,Pershore,Worcestershire,WR10 2DF,West Midlands,01386 553349,pershoretyres@btconnect.com,www.pershoretyresltd.co.uk
1105370,PETER WINN TYRES,Andrew Winn,1 Garths End,,,York,North Yorkshire,YO42 2HZ,Yorks & Humber,01759 302907,info@winntyres.co.uk,www.winntyres.co.uk
1115781,PHIL HARVEY TYRES,Phil Harvey,Cromwell Road Garage,,,Newport,Gwent,NP11 7AD,South Wales,01633 615075,harvey.tyres@btconnect.com,www.philharveytyres.co.uk
1115836,PHILLIPS TYRES CASTLE CARY,Nigel Phillips,Centre Garage,The Triangle,,Castle Cary,Somerset,BA7 7BD,South West,01963 351944,diana.phillipstyres@yahoo.co.uk,
1085259,Phils Tyres,Phil Abbs,Unit 7 Aston Business Park,Shrewsbury Avenue,,Peterborough,Cambridgeshire,PE2 7BX,East,01733 390060,,www.philstyres.co.uk
1085134,PLUME TYRES,Russell Parker,18 Sheaf Lane,Sheldon,,Birmingham,West Midlands,B26 3HD,West Midlands,0121 742 5051,russell.parker@plumetyres.co.uk,www.zoomtoplume.com
1121837,Plymouth Tyres Ltd,Don Fraser,"Unit 6, Broxton Drive",Pomphlett Farm Industrial Estate,Plymstock,Plymouth,Devon,PL9 7BG,South West,01752 492560,sales@plymouthtyres.co.uk,www.plymouthtyres.co.uk
1084701,PRESTON TYRE SPECIALISTS,Duncan Higham,Unit 1,Peel Street,,Preston,Lancashire,PR2 2QS,North West,01772 253379,prestontyrespecialists@gmail.com,
1083235,PRO-FIT TYRES,Craig Armstrong,Unit 2,Walker Street,,Oldham,Lancashire,OL8 1SX,North West,0161 626 0111,pro-fittyres@msn.com,
1101220,QUEENS PARK TYRES LTD,Vincent Salmons,107 Perry Street,,,Billericay,Essex,CM12 0NH,South East,01277 650422,qpt@btconnect.com,www.queensparktyres.co.uk
1115725,RANDYS AUTO REPAIRS,Scott Randy,Unit 6 Roodlands Business Park,Hospital Road,,Haddington,East Lothian,EH41 3PE,Scotland,01620 825 110,enquiries@randys.autorepairs.co.uk,
1116360,RHYL TYRE & BATTERY,Arthur Webber,117 Marsh Road,,,Rhyl,Clwyd,LL18 2AB,South Wales,01745 332000,sales@rtbtyres.com,www.rhyltyres.co.uk
1087184,RLG TYRES,Chris-Caroline Wells,Durrants Farm,Cowbeech Road,,Rushlake Green,East Sussex,TN21 9QB,South East,01435 830664,info@rlgtyres.co.uk,www.rlgtyres.co.uk
1085620,ROADRUNNER SERVICE CENTRE,Bryan Bell,11 Gruneisen Road,Finchley,,London,,N3 1LS,London,0208 346 9777,bryan@roadrunnerservicecentre.co.uk,www.roadrunnerservicecentre.co.uk
1084758,ROADWHEEL TYRE & EXHAUST LIMITED,Gary Averiss,Unit 20 Waterfront Business Park,Fleet,,Fleet,Hampshire,GU51 3QT,South East,01252 617788,fleetenquiries@roadwheel.co.uk,http://roadwheel.co.uk/
1087070,ROB HENSON VEHICLE SERVICES,Rob Henson,Little London,,,Spalding,Lincolnshire,PE11 2UJ,East,01775 719352,rob.henson177@btinternet.com,
1083208,Sale Tyre & Battery,Phil Knowles,Northenden Road,Sale,,Manchester,Greater Manchester,M33 2FE,North West,0161 969 4090,sales@biginrubber.co.uk,www.biginrubber.co.uk
1084542,SANDFORD TYRES,Richard Vennell,Bridgewater Road,Redhill,,Bristol,Avon,BS40 5TG,South West,01934 862885,rich@sandfordtyres.co.uk,www.sandfordtyres.co.uk
1115942,SANDMILL MOT CENTRE,Jamie Thompson,Commerce Road,Blackparks Industrial Estate,,Stranraer,Wigtownshire,DG9 7DE,Scotland,01776 889635,hlthompson@btconnect.com,www.sandmillmotcentre.co.uk
1115725,SCOTT MOTORS,John Scott,Innerleithen Garage,Morningside,,Innerleithen,East Lothian,EH44 6QP,Scotland,01896 830241,scottmotors1@msn.com,
1088608,SOLTYRE LIMITED,Max Gordon,4 Downs Way Industrial Estate,,,Dumfries,Dumfriesshire,DG1 3RS,Scotland,01387 266366,enquiries@soltyre.co.uk,www.soltyre.com
1115996,SPA MOTORS,Sukhi and Laky Saikhon,9-11 Longfield Road,Sydenham Industrial Estate,,Leamington Spa,Warwickshire,CV31 1XB,West Midlands,01926 882 522,sukhi147@hotmail.com,www.spamotors-leamingtonspa.co.uk
1083315,Stag Tyres,Anthony Meggison,12 Oxford Street,,,Hartlepool,Co. Durham,TS25 1PT ,North East,01429 262955,info@stagtyres.co.uk,www.tyrespot.co.uk
1116020,STAPLEHURST TYRES,Dewi Williams,Unit 2 Honey Crest Industrial Park,Lodge Road,,Staplehurst,Kent,TN12 0RX,South East,01580 893326,staplehurst.tyres@hotmail.co.uk,www.staplehursttyres.co.uk
1086081,STATION VIEW GARAGE,Justine Pirt,Station Road,,,Dorking,Surrey,RH4 1HF,South East,01306 880149,justine@stationviewgarage.com,www.stationviewgarage.co.uk
1116207,STEVE ANDREWS TYRES,Steve Andrews,20 Mount Charles Road,,,St Austell,Cornwall,PL25 3LD,South West,01208 269999,lee@steveandrewstyres.co.uk,
1083210,STEVE'S TYRED 'N' EXHAUSTED,Steven Halliday,26-28 Wright Street,,,Southport,Merseyside,PR9 0TL,North West,01704 531777,service@stevestyred.co.uk,www.stevestyrednexhausted.co.uk
1115703,STEVES TYRES & EXHAUSTS,Steve Cummins,79 Dale Road,,,Buxton,Derbyshire,SK17 6NE,North West,01298 70011,stevestyres@yahoo.co.uk,www.stevestyres.com
1088400,TADLEY TYRE SERVICE,Steve Budd,Unit 1b Staceys Industrial Estate,Silchester Road,,Tadley,Hampshire,RG26 3PX,South East,01189 815611,info@tadleytyresandexhaustltd.co.uk,www.tadleytyresandexhaustltd.co.uk
1116065,TAMWORTH TYRE AND EXHAUST CENTRE,Mick Bretherton,411 Watling Street,Two Gates,Wilnecote,Tamworth,Staffordshire,B77 5AL,West Midlands,01827 262522,TAMWORTHTYRES@AOL.COM,tamworthtyres.com
1087096,Tanvic Tyres,Andy Zelos,96 Appletongate,,,Newark,Nottinghamshire,NG24 1LS,East Midlands,01636 671400,,www.tanvic.co.uk
1115876,TARGET AUTO PARTS,Dave Whalley,Pitronnerie Road,,,St Peter Port,Guernsey,GY1 2RF,Channel Islands,01481 728944,target@CWGSY.net,www.targetautoparts.co.uk
1115749,TAYLORS TYRES,Robert Taylor,Barncoose Lane,Illogan Highway,,Redruth,Cornwall,TR15 3EL,South West,01209 315025,taylorstyresltd@gmail.com,www.taylorstyres.com
1101402,TENNYSON TYRES,Peter Blackman,Unit 20 Fleet Road Industrial Estat,,,Holbeach,Lincolnshire,PE12 8LY,East,01406 424262,tyrestennyson@gmail.com,
1122123,The Garage (ALN Garages Limited),Alan Goodey,"Unit 6, Arden Park",Old Wolverton Road,,Milton Keynes,Buckinghamshire,MK12 5RH,South East,01908 315020,thegaragemk@btconnect.com,www.thegaragetyres.co.uk
1099882,THE TYRE WAREHOUSE,Shaun Bancroft,1 Borough Court,,,Brackley,Northamptonshire,NN13 7BE,East Midlands,01280 706030,sales@tyre-warehouse.co.uk,www.tyre-warehouse.co.uk
1116627,THE TYREMEN,Daniel-Steve Turner,28-30 Parsons Lane,,,Clitheroe,Lancashire,BB7 2JP,North West,01200 422277,sharon4222@live.com,www.thetyremenclitheroe.co.uk
1098153,Tomato Tyres Ltd,Anthony Smith,35a Thorney Business Park,Thorney Lane North,,Iver,Buckinghamshire,SL0 9HF,South East,01753 654463,info@tomatotyres.co.uk,tomatotyres.co.uk
1100710,TOWCESTER TYRES,Richard Lawson,Old Tiffield Road,,,Towcester,Northamptonshire,NN12 6PF,East Midlands,01327 359167,sales@towcestertyres.co.uk,www.towcestertyres.co.uk
1083890,TREVS TYRES,Trevor Horton,Unit 8,Cherry Holt Square,,Bourne,Lincolnshire,PE10 9LA,East,01778 426381,,http://www.trevstyres.net/
1115985,TVE TYRES,George Pinder,Leach Road,Chard Business Park,,Chard,Somerset,TA20 1FA,South West,01460 64225,johnpindertve@hotmail.co.uk,www.tveuk.com
1083315,TYRE SPOT,Colin Webb,Drum Road,Birtley,,Chester Le Street,Co. Durham,DH3 2AF,North East,0191 4107762,durham@tyrespot.co.uk,www.tyrespot.co.uk
1105069,TYRECARE ST HELENS,Jon Forrest,45-49 Dentons Green Lane,,,St Helens,Merseyside,WA10 2QF,North West,01744 27214,tyrecareltd@aol.com,www.tyrecaresthelens.co.uk
1115910,TYREFORCE SHREWSBURY,Perry Lee,Unit 2,Haughmond Industrial Estate,,Shrewsbury,Shropshire,SY1 4NT,West Midlands,01743 442272,tyreforceshrewsbury@live.com,https://www.tyreforce-shrewsbury.co.uk
1099127,TYREMARKET,,142 Leeds Road,,,Heckmondwike,West Yorkshire,WF16 9DQ,Yorks & Humber,01924 402615,tyremarketltd@hotmail.co.uk,
1115994,TYRES KING'S LYNN,Nick Crome,Austin Field,,,Kings Lynn,Norfolk,PE30 1PH,East,01553 773265,nickattkl@aol.com,
1116671,TYRESALES & SERVICE,Mike Woolls,Unit 8B Herald Industrial Estate,,,Southampton,Hampshire,SO30 2JW,South East,01489 787350,sales@tyreshops.co.uk,https://www.tyreshops.co.uk/
1083823,TYREWISE,Brian Crank,1 Canal Walk,Rudheath,,Northwich,Cheshire,CW9 7XP,North West,01606 40034,tyrewisenorthwich@live.co.uk,http://tyrewisenorthwich.co.uk/
1087362,TYREWORKS,Andy Falcus,Unit 4,Burnside Business Park,,Market Drayton,Shropshire,TF9 3UX,West Midlands,01630 698080,andrew.falcus@btconnect.com,
1087595,VALES GARAGE,Martin Lee,Rake Road,Milland,,Liphook,Hampshire,GU30 7JS,South East,01428 741274,valesgarage@outlook.com,
1117961,VICTORIA TYRE CENTRE,Mark Thomas,162 Victoria Avenue,,,Hastings,East Sussex,TN35 5BS,South East,01424 460838,victoria4tyres@gmail.co.uk,www.victoriatyrecentre.co.uk
1083802,WARWICK CAR CO LTD,Jack Thomas,Doctor Newtons Way ,Fromeside Industrial Estate,,Stroud,Gloucestershire,GL5 3JX,South West,01453 765112,warwickcars@aol.com,www.warwickcarcompany.co.uk
1085199,Westbury Tyres,Paul Fyfe,Moat Road,West Wiltshire Trading Estate,,Westbury,Wiltshire,BA13 4JS,South West,01373 827200,info@westburytyremot.co.uk,www.westburymot.co.uk
1115725,WESTEND GARAGE,Paul Begley/Ian Marr,4 Westend Units,Charlesfield ,,St Boswells,Roxburghshire,TD6 0HH,Scotland,01835 824664,westend-garage@btconnect.com,
1115837,WHEELCRAFT,John Leeson and Liz Penson,Unit 2b,Heckington Business Park,,Sleaford,Lincolnshire,NG34 9JH,East Midlands,01529 462162,sales@wheelcraftuk.co.uk,www.wheelcraftuk.co.uk
1086907,WILF DAWES TYRES,Lizzy Summers,Unit 1-2 Peninsular Park,,,Saltash,Cornwall,PL12 6LX,South West,01752 846620,wilfdawestyres@btconnect.com,
1095726,WILL ELLERBY TYRES,Will Ellerby,Unit 6B,Vale Road Industrial Estate,,Spilsby,Lincolnshire,PE23 5HE,East,01790 751128,willellerbytyres@btinternet.com,www.willellerbytyresltd.com
1116361,WILLIAMS TYRE & EXHAUST SERVICES,Dale Guiler,1 Boss Hall Road,,,Ipswich,Suffolk,IP1 5BN,East,01473 749292,info@williamstyres.co.uk,www.williamstyres.co.uk
1089142,WINNER GARAGE,Jason Morgan,Forest Vale Industrial Estate,Broadmoor Road,,Cinderford,Gloucestershire,GL14 2PH,South West,01594 829800,service@winnergarage.skoda.co.uk,www.winnergarage.co.uk
1085041,WIRRAL TYRE & COMMERCIAL LTD,Robert Davies,"Unit 1, 10 Old Hall Road",Wirral Int. Business Park,Wirral,Birkenhead,Merseyside,CH62 3NX,North West,0845 3707006,rob@wirraltyre.co.uk,
1084920,WOKINGHAM TYRE & EXHAUST,Chris Edmunds,51e Barkham Road,,,Wokingham,Berkshire,RG41 2RG,South East,0118 978 7875,wokinghamtyresandmot@gmail.com,wokinghamtyres.co.uk
1116450,WYMONDHAM TYRE SERVICES,Trevor Brock,Units 7-8,Spur Industrial Estate,,Wymondham,Norfolk,NR18 0NL,South West,01953 673888,christine@wymondhamtyres.co.uk,www.tyresnorfolk.co.uk
1115835,XPRESS GARAGE & TYRES,Peter Adams ,Unit 3 Plot 13,Tregoniggie Ind. Estate,,Falmouth,Cornwall,TR11 4SN,South West,01326 377997,info@xpressgarage.co.uk,xpressgarage.co.uk
1116079,X-SPURT TYRES,Chris Seston,Unit 39a Lawrence Road Industrial Estate,East Woodberry Lane,,Southend on Sea,Essex,SS2 6RH,East,01702 528222,sales@xspurttyres.co.uk,https://www.xspurttyres.co.uk
,,,,,,,,,,,,
